$$SOE
2460154.500000000, A.D. 2023-Jul-29 00:00:00.0000, 3.611923336253724E+08, -7.480191177147798E+07, 1.367709539465707E+08,
2460161.500000000, A.D. 2023-Aug-05 00:00:00.0000, 3.663571758347582E+08, -6.422081066506614E+07, 1.343333726444254E+08,
2460168.500000000, A.D. 2023-Aug-12 00:00:00.0000, 3.712344753228368E+08, -5.358918687152269E+07, 1.317903076444671E+08,
2460175.500000000, A.D. 2023-Aug-19 00:00:00.0000, 3.758250016126324E+08, -4.291604661211973E+07, 1.291453865904966E+08,
2460182.500000000, A.D. 2023-Aug-26 00:00:00.0000, 3.801298522724778E+08, -3.221016318278068E+07, 1.264022477269010E+08,
2460189.500000000, A.D. 2023-Sep-02 00:00:00.0000, 3.841504332538928E+08, -2.148006910846046E+07, 1.235645310584033E+08,
2460196.500000000, A.D. 2023-Sep-09 00:00:00.0000, 3.878884393867872E+08, -1.073404994291439E+07, 1.206358701182698E+08,
2460203.500000000, A.D. 2023-Sep-16 00:00:00.0000, 3.913458353078870E+08, 1.986032026331127E+04, 1.176198843204056E+08,
2460210.500000000, A.D. 2023-Sep-23 00:00:00.0000, 3.945248373316564E+08, 1.077388260904947E+07, 1.145201718706143E+08,
2460217.500000000, A.D. 2023-Sep-30 00:00:00.0000, 3.974278960044687E+08, 2.152049619915656E+07, 1.113403033525328E+08,
2460224.500000000, A.D. 2023-Oct-07 00:00:00.0000, 4.000576770610870E+08, 3.225244176439320E+07, 1.080838161471082E+08,
2460231.500000000, A.D. 2023-Oct-14 00:00:00.0000, 4.024170418868464E+08, 4.296272083478828E+07, 1.047542093043452E+08,
2460238.500000000, A.D. 2023-Oct-21 00:00:00.0000, 4.045090307628984E+08, 5.364459335884532E+07, 1.013549386813722E+08,
2460245.500000000, A.D. 2023-Oct-28 00:00:00.0000, 4.063368475079466E+08, 6.429157572289447E+07, 9.788941263898164E+07,
2460252.500000000, A.D. 2023-Nov-04 00:00:00.0000, 4.079038442962158E+08, 7.489743854661483E+07, 9.436098832414997E+07,
2460259.500000000, A.D. 2023-Nov-11 00:00:00.0000, 4.092135068505200E+08, 8.545620373997746E+07, 9.077296844758891E+07,
2460266.500000000, A.D. 2023-Nov-18 00:00:00.0000, 4.102694402431293E+08, 9.596214083817145E+07, 8.712859850418887E+07,
2460273.500000000, A.D. 2023-Nov-25 00:00:00.0000, 4.110753553833654E+08, 1.064097627135888E+08, 8.343106440422992E+07,
2460280.500000000, A.D. 2023-Dec-02 00:00:00.0000, 4.116350562201512E+08, 1.167938207256796E+08, 7.968349048451178E+07,
2460287.500000000, A.D. 2023-Dec-09 00:00:00.0000, 4.119524277323431E+08, 1.271092993170580E+08, 7.588893786039928E+07,
2460294.500000000, A.D. 2023-Dec-16 00:00:00.0000, 4.120314249850790E+08, 1.373514101304846E+08, 7.205040306677401E+07,
2460301.500000000, A.D. 2023-Dec-23 00:00:00.0000, 4.118760635862930E+08, 1.475155863906997E+08, 6.817081698553923E+07,
2460308.500000000, A.D. 2023-Dec-30 00:00:00.0000, 4.114904101840381E+08, 1.575974786535470E+08, 6.425304424257202E+07,
2460315.500000000, A.D. 2024-Jan-06 00:00:00.0000, 4.108785712136458E+08, 1.675929496122730E+08, 6.029988302047902E+07,
2460322.500000000, A.D. 2024-Jan-13 00:00:00.0000, 4.100446830491061E+08, 1.774980661975778E+08, 5.631406482594419E+07,
2460329.500000000, A.D. 2024-Jan-20 00:00:00.0000, 4.089929047584630E+08, 1.873090920938947E+08, 5.229825432865667E+07,
2460336.500000000, A.D. 2024-Jan-27 00:00:00.0000, 4.077274114088374E+08, 1.970224813596475E+08, 4.825504948988131E+07,
2460343.500000000, A.D. 2024-Feb-03 00:00:00.0000, 4.062523874675890E+08, 2.066348722350109E+08, 4.418698192278004E+07,
2460350.500000000, A.D. 2024-Feb-10 00:00:00.0000, 4.045720205516598E+08, 2.161430808743077E+08, 4.009651741675979E+07,
2460357.500000000, A.D. 2024-Feb-17 00:00:00.0000, 4.026904956381161E+08, 2.255440950357572E+08, 3.598605659639689E+07,
2460364.500000000, A.D. 2024-Feb-24 00:00:00.0000, 4.006119897460506E+08, 2.348350677650682E+08, 3.185793569662108E+07,
2460371.500000000, A.D. 2024-Mar-02 00:00:00.0000, 3.983406670936430E+08, 2.440133110593010E+08, 2.771442743373604E+07,
2460378.500000000, A.D. 2024-Mar-09 00:00:00.0000, 3.958806748442414E+08, 2.530762894645760E+08, 2.355774194044401E+07,
2460385.500000000, A.D. 2024-Mar-16 00:00:00.0000, 3.932361398126510E+08, 2.620216138185941E+08, 1.939002773174474E+07,
2460392.500000000, A.D. 2024-Mar-23 00:00:00.0000, 3.904111660035980E+08, 2.708470362575050E+08, 1.521337278962438E+07,
2460399.500000000, A.D. 2024-Mar-30 00:00:00.0000, 3.874098307157489E+08, 2.795504464697643E+08, 1.102980595888469E+07,
2460406.500000000, A.D. 2024-Apr-06 00:00:00.0000, 3.842361794453616E+08, 2.881298658395783E+08, 6.841298345792443E+06,
2460413.500000000, A.D. 2024-Apr-13 00:00:00.0000, 3.808942231215026E+08, 2.965834403229943E+08, 2.649764452903464E+06,
2460420.500000000, A.D. 2024-Apr-20 00:00:00.0000, 3.773879366996242E+08, 3.049094347368997E+08, -1.542936652626768E+06,
2460427.500000000, A.D. 2024-Apr-27 00:00:00.0000, 3.737212575759897E+08, 3.131062279029545E+08, -5.735000051724657E+06,
2460434.500000000, A.D. 2024-May-04 00:00:00.0000, 3.698980838921164E+08, 3.211723079455543E+08, -9.924673639604554E+06,
2460441.500000000, A.D. 2024-May-11 00:00:00.0000, 3.659222729496753E+08, 3.291062676430259E+08, -1.411025678201395E+07,
2460448.500000000, A.D. 2024-May-18 00:00:00.0000, 3.617976398001565E+08, 3.369067998535177E+08, -1.829009897287172E+07,
2460455.500000000, A.D. 2024-May-25 00:00:00.0000, 3.575279560165269E+08, 3.445726930078614E+08, -2.246259850093856E+07,
2460462.500000000, A.D. 2024-Jun-01 00:00:00.0000, 3.531169486899464E+08, 3.521028266117459E+08, -2.662620113971411E+07,
2460469.500000000, A.D. 2024-Jun-08 00:00:00.0000, 3.485682998828242E+08, 3.594961667346719E+08, -3.077939888848567E+07,
2460476.500000000, A.D. 2024-Jun-15 00:00:00.0000, 3.438856469249389E+08, 3.667517620309028E+08, -3.492072875979944E+07,
2460483.500000000, A.D. 2024-Jun-22 00:00:00.0000, 3.390725825354626E+08, 3.738687414657784E+08, -3.904877142793249E+07,
2460490.500000000, A.D. 2024-Jun-29 00:00:00.0000, 3.341326526367452E+08, 3.808463119244655E+08, -4.316214969473469E+07,
2460497.500000000, A.D. 2024-Jul-06 00:00:00.0000, 3.290693544947881E+08, 3.876837532313381E+08, -4.725952721952420E+07,
2460504.500000000, A.D. 2024-Jul-13 00:00:00.0000, 3.238861371269161E+08, 3.943804134010408E+08, -5.133960746309334E+07,
2460511.500000000, A.D. 2024-Jul-20 00:00:00.0000, 3.185864019806716E+08, 4.009357052654418E+08, -5.540113257114565E+07,
2460518.500000000, A.D. 2024-Jul-27 00:00:00.0000, 3.131735032178671E+08, 4.073491035133827E+08, -5.944288221631476E+07,
2460525.500000000, A.D. 2024-Aug-03 00:00:00.0000, 3.076507478677354E+08, 4.136201417650517E+08, -6.346367245516475E+07,
2460532.500000000, A.D. 2024-Aug-10 00:00:00.0000, 3.020213960067247E+08, 4.197484096733053E+08, -6.746235461627427E+07,
2460539.500000000, A.D. 2024-Aug-17 00:00:00.0000, 2.962886610046459E+08, 4.257335500704346E+08, -7.143781422229299E+07,
2460546.500000000, A.D. 2024-Aug-24 00:00:00.0000, 2.904557098579239E+08, 4.315752561348954E+08, -7.538896995047769E+07,
2460553.500000000, A.D. 2024-Aug-31 00:00:00.0000, 2.845256637190303E+08, 4.372732685133344E+08, -7.931477264731336E+07,
2460560.500000000, A.D. 2024-Sep-07 00:00:00.0000, 2.785015989817321E+08, 4.428273725211830E+08, -8.321420442032371E+07,
2460567.500000000, A.D. 2024-Sep-14 00:00:00.0000, 2.723865490023456E+08, 4.482373964141815E+08, -8.708627773333625E+07,
2460574.500000000, A.D. 2024-Sep-21 00:00:00.0000, 2.661835044229036E+08, 4.535032111386445E+08, -9.093003428472461E+07,
2460581.500000000, A.D. 2024-Sep-28 00:00:00.0000, 2.598954116027490E+08, 4.586247283289088E+08, -9.474454388668883E+07,
2460588.500000000, A.D. 2024-Oct-05 00:00:00.0000, 2.535251728242619E+08, 4.636018965514822E+08, -9.852890368175517E+07,
2460595.500000000, A.D. 2024-Oct-12 00:00:00.0000, 2.470756479091607E+08, 4.684346987722039E+08, -1.022822374194912E+08,
2460602.500000000, A.D. 2024-Oct-19 00:00:00.0000, 2.405496554907037E+08, 4.731231507710693E+08, -1.060036946540638E+08,
2460609.500000000, A.D. 2024-Oct-26 00:00:00.0000, 2.339499739058910E+08, 4.776672996994554E+08, -1.096924499242983E+08,
2460616.500000000, A.D. 2024-Nov-02 00:00:00.0000, 2.272793419620908E+08, 4.820672226277725E+08, -1.133477019512183E+08,
2460623.500000000, A.D. 2024-Nov-09 00:00:00.0000, 2.205404596721716E+08, 4.863230251006671E+08, -1.169686728595069E+08,
2460630.500000000, A.D. 2024-Nov-16 00:00:00.0000, 2.137359889817614E+08, 4.904348396964567E+08, -1.205546074245073E+08,
2460637.500000000, A.D. 2024-Nov-23 00:00:00.0000, 2.068685545334190E+08, 4.944028245373722E+08, -1.241047723524066E+08,
2460644.500000000, A.D. 2024-Nov-30 00:00:00.0000, 1.999407446739806E+08, 4.982271617046546E+08, -1.276184556155143E+08,
2460651.500000000, A.D. 2024-Dec-07 00:00:00.0000, 1.929551131227496E+08, 5.019080559761610E+08, -1.310949658462423E+08,
2460658.500000000, A.D. 2024-Dec-14 00:00:00.0000, 1.859141806106562E+08, 5.054457351073628E+08, -1.345336316262032E+08,
2460665.500000000, A.D. 2024-Dec-21 00:00:00.0000, 1.788204341702342E+08, 5.088404504110860E+08, -1.379338005583144E+08,
2460672.500000000, A.D. 2024-Dec-28 00:00:00.0000, 1.716763260466955E+08, 5.120924746660003E+08, -1.412948385446721E+08,
2460679.500000000, A.D. 2025-Jan-04 00:00:00.0000, 1.644842748266915E+08, 5.152020997285160E+08, -1.446161293144545E+08,
2460686.500000000, A.D. 2025-Jan-11 00:00:00.0000, 1.572466669634836E+08, 5.181696355049231E+08, -1.478970738988839E+08,
2460693.500000000, A.D. 2025-Jan-18 00:00:00.0000, 1.499658577808329E+08, 5.209954093614886E+08, -1.511370900433806E+08,
2460700.500000000, A.D. 2025-Jan-25 00:00:00.0000, 1.426441721980446E+08, 5.236797654950170E+08, -1.543356116171700E+08,
2460707.500000000, A.D. 2025-Feb-01 00:00:00.0000, 1.352839053645808E+08, 5.262230642313604E+08, -1.574920880394927E+08,
2460714.500000000, A.D. 2025-Feb-08 00:00:00.0000, 1.278873232616764E+08, 5.286256812697010E+08, -1.606059837257219E+08,
2460721.500000000, A.D. 2025-Feb-15 00:00:00.0000, 1.204566632990980E+08, 5.308880068511384E+08, -1.636767775574975E+08,
$$EOE